NORAD_CAT_ID,OBJECT_NAME,OBJECT_TYPE,EPOCH,MEAN_MOTION,ECCENTRICITY,INCLINATION,RA_OF_ASC_NODE,ARG_OF_PERICENTER,MEAN_ANOMALY,BSTAR,MEAN_MOTION_DOT,MEAN_MOTION_DDOT,TLE_LINE0,TLE_LINE1,TLE_LINE2,SEMIMAJOR_AXIS,PERIOD,APOGEE,PERIGEE,DECAYED
52469.0,STARLINK-3828,PAYLOAD,2024-08-14 09:49:56,15.08843157,0.000105,53.2148,108.1882,90.2642,269.8471,0.00045919,7.028e-05,0.0,0 STARLINK-3828,1 52469U 22049U   24227.40968243  .00007028  00000-0  45919-3 0  9994,2 52469  53.2148 108.1882 0001050  90.2642 269.8471 15.08843157126017,6917.871,95.437,540.462,539.009,0.0
52469.0,STARLINK-3828,PAYLOAD,2024-08-14 22:33:01,15.0885473,0.0001187,53.2158,105.8074,95.902,264.2107,0.00096591,0.00015124,0.0,0 STARLINK-3828,1 52469U 22049U   24227.93960377  .00015124  00000-0  96591-3 0  9990,2 52469  53.2158 105.8074 0001187  95.9020 264.2107 15.08854730125932,6917.835,95.437,540.522,538.879,0.0
52469.0,STARLINK-3828,PAYLOAD,2024-08-15 22:23:47,15.08859375,0.0001282,53.2166,101.3475,83.0679,277.0459,0.00012345,1.678e-05,0.0,0 STARLINK-3828,1 52469U 22049U   24228.93319443  .00001678  00000-0  12345-3 0  9997,2 52469  53.2166 101.3475 0001282  83.0679 277.0459 15.08859375126080,6917.821,95.436,540.573,538.799,0.0
52469.0,STARLINK-3828,PAYLOAD,2024-08-17 01:25:21,15.08847596,0.0001313,53.2161,96.29,92.4897,267.6246,-0.00011195,-2.07e-05,0.0,0 STARLINK-3828,1 52469U 22049U   24230.05927245 -.00002070  00000-0 -11195-3 0  9999,2 52469  53.2161  96.2900 0001313  92.4897 267.6246 15.08847596126419,6917.857,95.437,540.63,538.814,0.0
52469.0,STARLINK-3828,PAYLOAD,2024-08-17 22:05:22,15.08840062,0.0001125,53.2155,92.4276,112.736,247.3751,-6.6828e-05,-1.351e-05,0.0,0 STARLINK-3828,1 52469U 22049U   24230.92039436 -.00001351  00000-0 -66828-4 0  9996,2 52469  53.2155  92.4276 0001125 112.7360 247.3751 15.08840062126381,6917.88,95.438,540.523,538.967,0.0
52469.0,STARLINK-3828,PAYLOAD,2024-08-18 20:20:46,15.08833708,0.0001108,53.2173,88.2594,98.9975,261.1143,7.4181e-05,8.93e-06,0.0,0 STARLINK-3828,1 52469U 22049U   24231.84776302  .00000893  00000-0  74181-4 0  9997,2 52469  53.2173  88.2594 0001108  98.9975 261.1143 15.08833708126686,6917.9,95.438,540.531,538.998,0.0
52469.0,STARLINK-3828,PAYLOAD,2024-08-18 21:56:09,15.08834309,0.0001085,53.2173,87.9622,88.7859,271.3258,7.4845e-05,9.03e-06,0.0,0 STARLINK-3828,1 52469U 22049U   24231.91400315  .00000903  00000-0  74845-4 0  9992,2 52469  53.2173  87.9622 0001085  88.7859 271.3258 15.08834309126538,6917.898,95.438,540.513,539.012,0.0
52469.0,STARLINK-3828,PAYLOAD,2024-08-18 23:31:33,15.08834236,0.0001115,53.2173,87.6648,83.4033,276.7086,7.1756e-05,8.54e-06,0.0,0 STARLINK-3828,1 52469U 22049U   24231.98024370  .00000854  00000-0  71756-4 0  9995,2 52469  53.2173  87.6648 0001115  83.4033 276.7086 15.08834236126541,6917.898,95.438,540.534,538.992,0.0
52469.0,STARLINK-3828,PAYLOAD,2024-08-19 23:22:20,15.08838063,0.000109,53.2174,83.2046,82.8101,277.3015,0.00012164,1.649e-05,0.0,0 STARLINK-3828,1 52469U 22049U   24232.97384277  .00001649  00000-0  12164-3 0  9990,2 52469  53.2174  83.2046 0001090  82.8101 277.3015 15.08838063126852,6917.886,95.438,540.505,538.997,0.0
52469.0,STARLINK-3828,PAYLOAD,2024-08-20 07:19:15,15.0884365,0.0001018,53.2172,81.7185,92.142,267.9689,0.0001625,2.3e-05,0.0,0 STARLINK-3828,1 52469U 22049U   24233.30503837  .00002300  00000-0  16250-3 0  9998,2 52469  53.2172  81.7185 0001018  92.1420 267.9689 15.08843650126743,6917.869,95.437,540.438,539.03,0.0
52469.0,STARLINK-3828,PAYLOAD,2024-08-20 21:37:43,15.08849223,0.0001113,53.2173,79.0429,90.1847,269.9273,0.00017735,2.537e-05,0.0,0 STARLINK-3828,1 52469U 22049U   24233.90119480  .00002537  00000-0  17735-3 0  9992,2 52469  53.2173  79.0429 0001113  90.1847 269.9273 15.08849223126992,6917.852,95.437,540.487,538.947,0.0
52469.0,STARLINK-3828,PAYLOAD,2024-08-21 19:53:07,15.08837751,0.0001224,53.2179,74.8803,84.6029,275.5102,0.00011615,1.561e-05,0.0,0 STARLINK-3828,1 52469U 22049U   24234.82856144  .00001561  00000-0  11615-3 0  9996,2 52469  53.2179  74.8803 0001224  84.6029 275.5102 15.08837751126975,6917.887,95.438,540.599,538.906,0.0
52469.0,STARLINK-3828,PAYLOAD,2024-08-21 23:03:53,15.08838232,0.0001218,53.2177,74.2858,84.4391,275.674,9.2107e-05,1.178e-05,0.0,0 STARLINK-3828,1 52469U 22049U   24234.96104159  .00001178  00000-0  92107-4 0  9993,2 52469  53.2177  74.2858 0001218  84.4391 275.6740 15.08838232127155,6917.886,95.438,540.593,538.908,0.0
